NORAD_CAT_ID,OBJECT_NAME,OBJECT_TYPE,EPOCH,MEAN_MOTION,ECCENTRICITY,INCLINATION,RA_OF_ASC_NODE,ARG_OF_PERICENTER,MEAN_ANOMALY,BSTAR,MEAN_MOTION_DOT,MEAN_MOTION_DDOT,TLE_LINE0,TLE_LINE1,TLE_LINE2,SEMIMAJOR_AXIS,PERIOD,APOGEE,PERIGEE,DECAYED
53265.0,STARLINK-4097,PAYLOAD,2023-05-07 19:15:15,15.08842702,0.0001126,53.2159,168.8891,91.7978,268.3143,-1.4796e-06,-3.11e-06,0.0,0 STARLINK-4097,1 53265U 22086Z   23127.80225997 -.00000311  00000-0 -14796-5 0  9995,2 53265  53.2159 168.8891 0001126  91.7978 268.3143 15.08842702 44350,6917.872,95.437,540.516,538.958,0.0
53265.0,STARLINK-4097,PAYLOAD,2023-05-08 01:36:48,15.08834295,0.0001314,53.2168,167.7016,94.371,265.7433,7.3466e-05,8.81e-06,0.0,0 STARLINK-4097,1 53265U 22086Z   23128.06722615  .00000881  00000-0  73466-4 0  9991,2 53265  53.2168 167.7016 0001314  94.3710 265.7433 15.08834295 44394,6917.898,95.438,540.672,538.854,0.0
53265.0,STARLINK-4097,PAYLOAD,2023-05-08 19:06:03,15.08833599,0.0001389,53.2172,164.4326,121.0272,239.0856,1.0255e-05,-1.25e-06,0.0,0 STARLINK-4097,1 53265U 22086Z   23128.79586937 -.00000125  00000-0  10255-4 0  9995,2 53265  53.2172 164.4326 0001389 121.0272 239.0856 15.08833599 44681,6917.9,95.438,540.726,538.804,0.0
53265.0,STARLINK-4097,PAYLOAD,2023-05-09 03:02:58,15.08831752,0.0001236,53.2163,162.9443,96.325,263.7883,0.00018048,2.585e-05,0.0,0 STARLINK-4097,1 53265U 22086Z   23129.12706521  .00002585  00000-0  18048-3 0  9994,2 53265  53.2163 162.9443 0001236  96.3250 263.7883 15.08831752 44554,6917.906,95.438,540.626,538.916,0.0
53265.0,STARLINK-4097,PAYLOAD,2023-05-09 07:49:07,15.08840221,0.0001162,53.2164,162.0521,105.0394,255.0726,7.2379e-05,8.64e-06,0.0,0 STARLINK-4097,1 53265U 22086Z   23129.32578418  .00000864  00000-0  72379-4 0  9994,2 53265  53.2164 162.0521 0001162 105.0394 255.0726 15.08840221 44762,6917.88,95.438,540.549,538.941,0.0
53265.0,STARLINK-4097,PAYLOAD,2023-05-10 09:15:18,15.08837508,0.0001028,53.2161,157.2928,96.1887,263.9223,0.00015678,2.208e-05,0.0,0 STARLINK-4097,1 53265U 22086Z   23130.38562843  .00002208  00000-0  15678-3 0  9999,2 53265  53.2161 157.2928 0001028  96.1887 263.9223 15.08837508 44926,6917.888,95.438,540.464,539.042,0.0
53265.0,STARLINK-4097,PAYLOAD,2023-05-10 18:47:37,15.08841134,0.0001022,53.2159,155.5083,92.6159,267.495,0.00014058,1.95e-05,0.0,0 STARLINK-4097,1 53265U 22086Z   23130.78306741  .00001950  00000-0  14058-3 0  9990,2 53265  53.2159 155.5083 0001022  92.6159 267.4950 15.08841134 44985,6917.877,95.437,540.449,539.035,0.0
53265.0,STARLINK-4097,PAYLOAD,2023-05-11 09:06:05,15.08843888,0.0001061,53.2159,152.8324,91.7815,268.3299,7.9057e-05,9.71e-06,0.0,0 STARLINK-4097,1 53265U 22086Z   23131.37922704  .00000971  00000-0  79057-4 0  9992,2 53265  53.2159 152.8324 0001061  91.7815 268.3299 15.08843888 45070,6917.869,95.437,540.467,539.0,0.0
53265.0,STARLINK-4097,PAYLOAD,2023-05-11 18:38:24,15.08839584,0.0001135,53.2161,151.0461,89.1067,271.0055,4.5455e-05,4.36e-06,0.0,0 STARLINK-4097,1 53265U 22086Z   23131.77667033  .00000436  00000-0  45455-4 0  9998,2 53265  53.2161 151.0461 0001135  89.1067 271.0055 15.08839584 44953,6917.882,95.438,540.532,538.961,0.0
53265.0,STARLINK-4097,PAYLOAD,2023-05-12 18:29:11,15.08840472,0.0001158,53.2163,146.5857,89.3683,270.7442,5.5235e-05,5.91e-06,0.0,0 STARLINK-4097,1 53265U 22086Z   23132.77027092  .00000591  00000-0  55235-4 0  9993,2 53265  53.2163 146.5857 0001158  89.3683 270.7442 15.08840472 45285,6917.879,95.438,540.545,538.943,0.0
53265.0,STARLINK-4097,PAYLOAD,2023-05-13 05:36:52,15.08845461,0.0001116,53.216,144.5037,89.8259,270.2861,9.6349e-05,1.246e-05,0.0,0 STARLINK-4097,1 53265U 22086Z   23133.23394606  .00001246  00000-0  96349-4 0  9992,2 53265  53.2160 144.5037 0001116  89.8259 270.2861 15.08845461 45179,6917.864,95.437,540.501,538.957,0.0
53265.0,STARLINK-4097,PAYLOAD,2023-05-13 07:12:16,15.08845287,0.0001134,53.2161,144.2065,88.6704,271.4418,0.00010687,1.414e-05,0.0,0 STARLINK-4097,1 53265U 22086Z   23133.30018591  .00001414  00000-0  10687-3 0  9993,2 53265  53.2161 144.2065 0001134  88.6704 271.4418 15.08845287 45368,6917.864,95.437,540.514,538.945,0.0
53265.0,STARLINK-4097,PAYLOAD,2023-05-14 07:03:03,15.08842311,0.0001015,53.2156,139.7472,82.6067,277.504,0.00010362,1.362e-05,0.0,0 STARLINK-4097,1 53265U 22086Z   23134.29378772  .00001362  00000-0  10362-3 0  9994,2 53265  53.2156 139.7472 0001015  82.6067 277.5040 15.08842311 45337,6917.873,95.437,540.44,539.036,0.0
53265.0,STARLINK-4097,PAYLOAD,2023-05-15 06:53:50,15.08839181,0.0001119,53.2164,135.2883,86.731,273.381,1.6631e-07,-2.85e-06,0.0,0 STARLINK-4097,1 53265U 22086Z   23135.28739161 -.00000285  00000-0  16631-6 0  9999,2 53265  53.2164 135.2883 0001119  86.7310 273.3810 15.08839181 45480,6917.883,95.438,540.522,538.974,0.0
53265.0,STARLINK-4097,PAYLOAD,2023-05-15 16:26:09,15.08837238,0.0001106,53.2161,133.5036,84.9088,275.203,-6.6859e-06,-3.94e-06,0.0,0 STARLINK-4097,1 53265U 22086Z   23135.68483313 -.00000394  00000-0 -66859-5 0  9996,2 53265  53.2161 133.5036 0001106  84.9088 275.2030 15.08837238 45729,6917.889,95.438,540.519,538.989,0.0
53265.0,STARLINK-4097,PAYLOAD,2023-05-16 06:44:37,15.08837601,0.0001141,53.2164,130.8268,87.7406,272.3717,2.9073e-05,1.75e-06,0.0,0 STARLINK-4097,1 53265U 22086Z   23136.28099270  .00000175  00000-0  29073-4 0  9999,2 53265  53.2164 130.8268 0001141  87.7406 272.3717 15.08837601 45817,6917.888,95.438,540.542,538.963,0.0
53265.0,STARLINK-4097,PAYLOAD,2023-05-16 16:16:56,15.0883469,0.0001117,53.2162,129.0424,85.2525,274.8595,1.4345e-05,-6e-07,0.0,0 STARLINK-4097,1 53265U 22086Z   23136.67843569 -.00000060  00000-0  14345-4 0  9990,2 53265  53.2162 129.0424 0001117  85.2525 274.8595 15.08834690 45699,6917.897,95.438,540.534,538.989,0.0
53265.0,STARLINK-4097,PAYLOAD,2023-05-17 16:07:44,15.08834623,0.0001165,53.2165,124.5823,90.7292,269.3834,5.3545e-05,5.64e-06,0.0,0 STARLINK-4097,1 53265U 22086Z   23137.67203817  .00000564  00000-0  53545-4 0  9990,2 53265  53.2165 124.5823 0001165  90.7292 269.3834 15.08834623 46029,6917.897,95.438,540.568,538.956,0.0
53265.0,STARLINK-4097,PAYLOAD,2023-05-18 03:15:25,15.08838557,0.0001172,53.2165,122.5006,91.4238,268.6889,6.3101e-05,7.17e-06,0.0,0 STARLINK-4097,1 53265U 22086Z   23138.13571639  .00000717  00000-0  63101-4 0  9991,2 53265  53.2165 122.5006 0001172  91.4238 268.6889 15.08838557 45915,6917.885,95.438,540.561,538.939,0.0
53265.0,STARLINK-4097,PAYLOAD,2023-05-18 08:01:35,15.08839966,0.0001164,53.2162,121.6083,90.1511,269.9615,6.6041e-05,7.63e-06,0.0,0 STARLINK-4097,1 53265U 22086Z   23138.33443538  .00000763  00000-0  66041-4 0  9996,2 53265  53.2162 121.6083 0001164  90.1511 269.9615 15.08839966 46128,6917.88,95.438,540.551,538.94,0.0
53265.0,STARLINK-4097,PAYLOAD,2023-05-18 22:20:03,15.0883359,0.0001176,53.2161,118.9316,87.1454,272.9673,4.5054e-05,4.29e-06,0.0,0 STARLINK-4097,1 53265U 22086Z   23138.93060154  .00000429  00000-0  45054-4 0  9991,2 53265  53.2161 118.9316 0001176  87.1454 272.9673 15.08833590 46215,6917.9,95.438,540.579,538.951,0.0
53265.0,STARLINK-4097,PAYLOAD,2023-05-18 23:55:27,15.08832596,0.0001174,53.2162,118.6342,87.3968,272.7159,3.6062e-05,2.86e-06,0.0,0 STARLINK-4097,1 53265U 22086Z   23138.99684272  .00000286  00000-0  36062-4 0  9990,2 53265  53.2162 118.6342 0001174  87.3968 272.7159 15.08832596 46045,6917.903,95.438,540.58,538.956,0.0
53265.0,STARLINK-4097,PAYLOAD,2023-05-19 15:49:18,15.08840588,0.0001205,53.2168,115.6609,86.5695,273.5435,6.6892e-05,7.77e-06,0.0,0 STARLINK-4097,1 53265U 22086Z   23139.65923817  .00000777  00000-0  66892-4 0  9994,2 53265  53.2168 115.6609 0001205  86.5695 273.5435 15.08840588 46144,6917.879,95.438,540.577,538.91,0.0
53265.0,STARLINK-4097,PAYLOAD,2023-05-20 04:32:22,15.08849258,0.0001199,53.2167,113.2815,87.5049,272.6081,9.1615e-05,1.171e-05,0.0,0 STARLINK-4097,1 53265U 22086Z   23140.18915123  .00001171  00000-0  91615-4 0  9995,2 53265  53.2167 113.2815 0001199  87.5049 272.6081 15.08849258 46221,6917.852,95.437,540.547,538.888,0.0
53265.0,STARLINK-4097,PAYLOAD,2023-05-20 15:40:04,15.08850129,0.0001208,53.2169,111.2003,86.4622,273.6508,0.00011562,1.553e-05,0.0,0 STARLINK-4097,1 53265U 22086Z   23140.65282768  .00001553  00000-0  11562-3 0  9995,2 53265  53.2169 111.2003 0001208  86.4622 273.6508 15.08850129 46477,6917.849,95.437,540.55,538.879,0.0
53265.0,STARLINK-4097,PAYLOAD,2023-05-21 07:33:55,15.08851154,0.0001275,53.2169,108.2257,95.3954,264.7184,0.00014037,1.947e-05,0.0,0 STARLINK-4097,1 53265U 22086Z   23141.31522355  .00001947  00000-0  14037-3 0  9995,2 53265  53.2169 108.2257 0001275  95.3954 264.7184 15.08851154 46396,6917.846,95.437,540.593,538.829,0.0
53265.0,STARLINK-4097,PAYLOAD,2023-05-22 04:13:58,15.08831743,0.0001178,53.2173,104.3584,87.8875,272.2252,-0.00011277,-2.082e-05,0.0,0 STARLINK-4097,1 53265U 22086Z   23142.17636675 -.00002082  00000-0 -11277-3 0  9997,2 53265  53.2173 104.3584 0001178  87.8875 272.2252 15.08831743 46528,6917.906,95.438,540.586,538.956,0.0
53265.0,STARLINK-4097,PAYLOAD,2023-05-22 07:24:44,15.08830082,0.0001281,53.2172,103.7655,88.1851,271.9288,-0.00010487,-1.956e-05,0.0,0 STARLINK-4097,1 53265U 22086Z   23142.30884857 -.00001956  00000-0 -10487-3 0  9990,2 53265  53.2172 103.7655 0001281  88.1851 271.9288 15.08830082 46724,6917.911,95.438,540.662,538.89,0.0
53265.0,STARLINK-4097,PAYLOAD,2023-05-23 02:29:21,15.08840977,0.0001242,53.2169,100.1987,86.1228,273.9906,1.8447e-05,6e-08,0.0,0 STARLINK-4097,1 53265U 22086Z   23143.10372094  .00000006  00000-0  18447-4 0  9992,2 53265  53.2169 100.1987 0001242  86.1228 273.9906 15.08840977 46668,6917.877,95.437,540.602,538.883,0.0
53265.0,STARLINK-4097,PAYLOAD,2023-05-23 04:04:44,15.08845282,0.0001233,53.217,99.9017,85.5041,274.6092,2.2034e-05,6.3e-07,0.0,0 STARLINK-4097,1 53265U 22086Z   23143.16995874  .00000063  00000-0  22034-4 0  9995,2 53265  53.2170  99.9017 0001233  85.5041 274.6092 15.08845282 46854,6917.864,95.437,540.582,538.876,0.0
